[{"OBJECT_NAME":"HAWK-2B","OBJECT_ID":"2021-006CZ","EPOCH":"2026-03-09T16:13:51.664224","MEAN_MOTION":15.33301353,"ECCENTRICITY":0.00071021,"INCLINATION":97.2334,"RA_OF_ASC_NODE":114.114,"ARG_OF_PERICENTER":185.9063,"MEAN_ANOMALY":174.2098,"EPHEMERIS_TYPE":0,"CLASSIFICATION_TYPE":"U","NORAD_CAT_ID":47508,"ELEMENT_SET_NO":999,"REV_AT_EPOCH":28424,"BSTAR":0.00029650607,"MEAN_MOTION_DOT":9.474e-5,"MEAN_MOTION_DDOT":0},{"OBJECT_NAME":"STARLINK-34704","OBJECT_ID":"2025-216N","EPOCH":"2026-03-09T21:36:08.839584","MEAN_MOTION":15.30187468,"ECCENTRICITY":0.00013845,"INCLINATION":53.1585,"RA_OF_ASC_NODE":332.0662,"ARG_OF_PERICENTER":84.972,"MEAN_ANOMALY":275.1439,"EPHEMERIS_TYPE":0,"CLASSIFICATION_TYPE":"U","NORAD_CAT_ID":65746,"ELEMENT_SET_NO":999,"REV_AT_EPOCH":2656,"BSTAR":0.0012704369,"MEAN_MOTION_DOT":0.00037443,"MEAN_MOTION_DDOT":0}]
